ONEWEB-0300             
1 49089U 21075Q   25027.57531052 -.00000304  00000+0 -88130-3 0  9990
2 49089  87.8846  91.3302 0001538 108.3880 251.7416 13.12441765168887
ONEWEB-0301             
1 49090U 21075R   25027.78780598  .00000256  00000+0  67545-3 0  9997
2 49090  87.8846  91.2930 0001609 108.3705 251.7599 13.12441910168277
ONEWEB-0302             
1 49091U 21075S   25027.69861364  .00000449  00000+0  12122-2 0  9993
2 49091  87.8846  91.3109 0002280  97.5407 262.5980 13.12442857168243
ONEWEB-0304             
1 49092U 21075T   25027.73719744  .00000100  00000+0  22377-3 0  9991
2 49092  87.9082 106.5711 0001865  97.4445 262.6899 13.17648498167012
ONEWEB-0305             
1 49093U 21075U   25027.57857650 -.00000007  00000+0 -51774-4 0  9995
2 49093  87.9080 106.5839 0001765  87.8877 272.2457 13.17648004167024
ONEWEB-0308             
1 49094U 21075V   25027.69210682  .00000418  00000+0  11271-2 0  9997
2 49094  87.8846  91.3087 0001794 103.7127 256.4201 13.12443825168254
ONEWEB-0309             
1 49095U 21075W   25027.65788919  .00000064  00000+0  13281-3 0  9998
2 49095  87.9082 106.5797 0002346 102.9568 257.1825 13.17648891167006
ONEWEB-0310             
1 49096U 21075X   25027.70670228  .00000344  00000+0  92007-3 0  9992
2 49096  87.8855  91.3346 0001995 101.4036 258.7316 13.12442464168880
